[{"OBJECT_NAME":"KUIPER-00186","OBJECT_ID":"2025-301H","EPOCH":"2026-03-09T13:52:11.657280","MEAN_MOTION":14.79925913,"ECCENTRICITY":6.71e-5,"INCLINATION":51.9016,"RA_OF_ASC_NODE":78.6043,"ARG_OF_PERICENTER":86.8443,"MEAN_ANOMALY":273.2596,"EPHEMERIS_TYPE":0,"CLASSIFICATION_TYPE":"U","NORAD_CAT_ID":67140,"ELEMENT_SET_NO":999,"REV_AT_EPOCH":1354,"BSTAR":-0.0010121,"MEAN_MOTION_DOT":-7.926e-5,"MEAN_MOTION_DDOT":0},{"OBJECT_NAME":"CZ-6A DEB","OBJECT_ID":"2022-151WF","EPOCH":"2026-03-09T14:53:51.510048","MEAN_MOTION":14.70635082,"ECCENTRICITY":0.0104309,"INCLINATION":98.441,"RA_OF_ASC_NODE":113.6179,"ARG_OF_PERICENTER":171.4887,"MEAN_ANOMALY":188.8119,"EPHEMERIS_TYPE":0,"CLASSIFICATION_TYPE":"U","NORAD_CAT_ID":55214,"ELEMENT_SET_NO":999,"REV_AT_EPOCH":17090,"BSTAR":0.0014323,"MEAN_MOTION_DOT":9.434e-5,"MEAN_MOTION_DDOT":0}]
